CCSDS_OMM_VERS = 2.0
CREATION_DATE  = 
ORIGINATOR     = 

OBJECT_NAME    = STARLINK-35326
OBJECT_ID      = 2025-232AC
CENTER_NAME    = EARTH
REF_FRAME      = TEME
TIME_SYSTEM    = UTC
MEAN_ELEMENT_THEORY = SGP/SGP4

EPOCH          = 2025-11-12T12:52:43.452192
MEAN_MOTION    = 15.49443626
ECCENTRICITY   = .0000987
INCLINATION    = 53.1599
RA_OF_ASC_NODE = 289.1445
ARG_OF_PERICENTER = 72.4969
MEAN_ANOMALY   = 287.6148

EPHEMERIS_TYPE = 0
CLASSIFICATION_TYPE = U
NORAD_CAT_ID   = 66031
ELEMENT_SET_NO = 999
REV_AT_EPOCH   = 548
BSTAR          = .28523E-2
MEAN_MOTION_DOT = .16229E-2
MEAN_MOTION_DDOT = 0

CCSDS_OMM_VERS = 2.0
CREATION_DATE  = 
ORIGINATOR     = 

OBJECT_NAME    = STARLINK-35311
OBJECT_ID      = 2025-232AD
CENTER_NAME    = EARTH
REF_FRAME      = TEME
TIME_SYSTEM    = UTC
MEAN_ELEMENT_THEORY = SGP/SGP4

EPOCH          = 2025-11-12T05:07:46.919136
MEAN_MOTION    = 15.49357028
ECCENTRICITY   = .00014463
INCLINATION    = 53.1598
RA_OF_ASC_NODE = 290.6840
ARG_OF_PERICENTER = 87.1905
MEAN_ANOMALY   = 272.9270

EPHEMERIS_TYPE = 0
CLASSIFICATION_TYPE = U
NORAD_CAT_ID   = 66032
ELEMENT_SET_NO = 999
REV_AT_EPOCH   = 543
BSTAR          = .31368901E-2
MEAN_MOTION_DOT = .178354E-2
MEAN_MOTION_DDOT = 0

CCSDS_OMM_VERS = 2.0
CREATION_DATE  = 
ORIGINATOR     = 

OBJECT_NAME    = QIANFAN-91
OBJECT_ID      = 2025-233A
CENTER_NAME    = EARTH
REF_FRAME      = TEME
TIME_SYSTEM    = UTC
MEAN_ELEMENT_THEORY = SGP/SGP4

EPOCH          = 2025-11-12T14:04:20.070624
MEAN_MOTION    = 14.25934138
ECCENTRICITY   = .0017062
INCLINATION    = 88.9958
RA_OF_ASC_NODE = 65.5029
ARG_OF_PERICENTER = 128.3146
MEAN_ANOMALY   = 231.9584

EPHEMERIS_TYPE = 0
CLASSIFICATION_TYPE = U
NORAD_CAT_ID   = 66033
ELEMENT_SET_NO = 999
REV_AT_EPOCH   = 374
BSTAR          = .5615E-3
MEAN_MOTION_DOT = .1354E-4
MEAN_MOTION_DDOT = 0

CCSDS_OMM_VERS = 2.0
CREATION_DATE  = 
ORIGINATOR     = 

OBJECT_NAME    = QIANFAN-92
OBJECT_ID      = 2025-233B
CENTER_NAME    = EARTH
REF_FRAME      = TEME
TIME_SYSTEM    = UTC
MEAN_ELEMENT_THEORY = SGP/SGP4

EPOCH          = 2025-11-12T07:18:30.270528
MEAN_MOTION    = 14.26015467
ECCENTRICITY   = .00166678
INCLINATION    = 88.9956
RA_OF_ASC_NODE = 65.5347
ARG_OF_PERICENTER = 131.5292
MEAN_ANOMALY   = 228.7335

EPHEMERIS_TYPE = 0
CLASSIFICATION_TYPE = U
NORAD_CAT_ID   = 66034
ELEMENT_SET_NO = 999
REV_AT_EPOCH   = 370
BSTAR          = .58285562E-3
MEAN_MOTION_DOT = .1407E-4
MEAN_MOTION_DDOT = 0

CCSDS_OMM_VERS = 2.0
CREATION_DATE  = 
ORIGINATOR     = 

OBJECT_NAME    = QIANFAN-93
OBJECT_ID      = 2025-233C
CENTER_NAME    = EARTH
REF_FRAME      = TEME
TIME_SYSTEM    = UTC
MEAN_ELEMENT_THEORY = SGP/SGP4

EPOCH          = 2025-11-12T19:03:33.120576
MEAN_MOTION    = 14.26102289
ECCENTRICITY   = .0016002
INCLINATION    = 88.9958
RA_OF_ASC_NODE = 65.4782
ARG_OF_PERICENTER = 129.6027
MEAN_ANOMALY   = 230.6582

EPHEMERIS_TYPE = 0
CLASSIFICATION_TYPE = U
NORAD_CAT_ID   = 66035
ELEMENT_SET_NO = 999
REV_AT_EPOCH   = 377
BSTAR          = .62939E-3
MEAN_MOTION_DOT = .152E-4
MEAN_MOTION_DDOT = 0

CCSDS_OMM_VERS = 2.0
CREATION_DATE  = 
ORIGINATOR     = 

OBJECT_NAME    = QIANFAN-94
OBJECT_ID      = 2025-233D
CENTER_NAME    = EARTH
REF_FRAME      = TEME
TIME_SYSTEM    = UTC
MEAN_ELEMENT_THEORY = SGP/SGP4

EPOCH          = 2025-11-12T07:15:41.895072
MEAN_MOTION    = 14.26124474
ECCENTRICITY   = .00160399
INCLINATION    = 88.9957
RA_OF_ASC_NODE = 65.5348
ARG_OF_PERICENTER = 130.6520
MEAN_ANOMALY   = 229.6071

EPHEMERIS_TYPE = 0
CLASSIFICATION_TYPE = U
NORAD_CAT_ID   = 66036
ELEMENT_SET_NO = 999
REV_AT_EPOCH   = 370
BSTAR          = .58794329E-3
MEAN_MOTION_DOT = .1422E-4
MEAN_MOTION_DDOT = 0

CCSDS_OMM_VERS = 2.0
CREATION_DATE  = 
ORIGINATOR     = 

OBJECT_NAME    = QIANFAN-95
OBJECT_ID      = 2025-233E
CENTER_NAME    = EARTH
REF_FRAME      = TEME
TIME_SYSTEM    = UTC
MEAN_ELEMENT_THEORY = SGP/SGP4

EPOCH          = 2025-11-12T19:02:07.342656
MEAN_MOTION    = 14.26170782
ECCENTRICITY   = .0016041
INCLINATION    = 88.9958
RA_OF_ASC_NODE = 65.4781
ARG_OF_PERICENTER = 129.6804
MEAN_ANOMALY   = 230.5807

EPHEMERIS_TYPE = 0
CLASSIFICATION_TYPE = U
NORAD_CAT_ID   = 66037
ELEMENT_SET_NO = 999
REV_AT_EPOCH   = 377
BSTAR          = .57087E-3
MEAN_MOTION_DOT = .1382E-4
MEAN_MOTION_DDOT = 0

CCSDS_OMM_VERS = 2.0
CREATION_DATE  = 
ORIGINATOR     = 

OBJECT_NAME    = QIANFAN-96
OBJECT_ID      = 2025-233F
CENTER_NAME    = EARTH
REF_FRAME      = TEME
TIME_SYSTEM    = UTC
MEAN_ELEMENT_THEORY = SGP/SGP4

EPOCH          = 2025-11-12T13:58:56.818848
MEAN_MOTION    = 14.25290205
ECCENTRICITY   = .0016425
INCLINATION    = 88.9958
RA_OF_ASC_NODE = 65.5024
ARG_OF_PERICENTER = 131.4045
MEAN_ANOMALY   = 228.8563

EPHEMERIS_TYPE = 0
CLASSIFICATION_TYPE = U
NORAD_CAT_ID   = 66038
ELEMENT_SET_NO = 999
REV_AT_EPOCH   = 374
BSTAR          = .45511E-3
MEAN_MOTION_DOT = .1086E-4
MEAN_MOTION_DDOT = 0

CCSDS_OMM_VERS = 2.0
CREATION_DATE  = 
ORIGINATOR     = 

OBJECT_NAME    = QIANFAN-97
OBJECT_ID      = 2025-233G
CENTER_NAME    = EARTH
REF_FRAME      = TEME
TIME_SYSTEM    = UTC
MEAN_ELEMENT_THEORY = SGP/SGP4

EPOCH          = 2025-11-12T15:39:36.442368
MEAN_MOTION    = 14.25628288
ECCENTRICITY   = .0016053
INCLINATION    = 89.0002
RA_OF_ASC_NODE = 65.4944
ARG_OF_PERICENTER = 125.1022
MEAN_ANOMALY   = 235.1679

EPHEMERIS_TYPE = 0
CLASSIFICATION_TYPE = U
NORAD_CAT_ID   = 66039
ELEMENT_SET_NO = 999
REV_AT_EPOCH   = 375
BSTAR          = .68906E-3
MEAN_MOTION_DOT = .1648E-4
MEAN_MOTION_DDOT = 0

CCSDS_OMM_VERS = 2.0
CREATION_DATE  = 
ORIGINATOR     = 

OBJECT_NAME    = QIANFAN-98
OBJECT_ID      = 2025-233H
CENTER_NAME    = EARTH
REF_FRAME      = TEME
TIME_SYSTEM    = UTC
MEAN_ELEMENT_THEORY = SGP/SGP4

EPOCH          = 2025-11-12T19:01:00.384384
MEAN_MOTION    = 14.26201556
ECCENTRICITY   = .0015887
INCLINATION    = 88.9958
RA_OF_ASC_NODE = 65.4781
ARG_OF_PERICENTER = 129.7865
MEAN_ANOMALY   = 230.4731

EPHEMERIS_TYPE = 0
CLASSIFICATION_TYPE = U
NORAD_CAT_ID   = 66040
ELEMENT_SET_NO = 999
REV_AT_EPOCH   = 377
BSTAR          = .55804E-3
MEAN_MOTION_DOT = .1352E-4
MEAN_MOTION_DDOT = 0

CCSDS_OMM_VERS = 2.0
CREATION_DATE  = 
ORIGINATOR     = 

OBJECT_NAME    = QIANFAN-99
OBJECT_ID      = 2025-233J
CENTER_NAME    = EARTH
REF_FRAME      = TEME
TIME_SYSTEM    = UTC
MEAN_ELEMENT_THEORY = SGP/SGP4

EPOCH          = 2025-11-12T07:13:28.606656
MEAN_MOTION    = 14.26215987
ECCENTRICITY   = .00159894
INCLINATION    = 88.9957
RA_OF_ASC_NODE = 65.5344
ARG_OF_PERICENTER = 130.3115
MEAN_ANOMALY   = 229.9478

EPHEMERIS_TYPE = 0
CLASSIFICATION_TYPE = U
NORAD_CAT_ID   = 66041
ELEMENT_SET_NO = 999
REV_AT_EPOCH   = 370
BSTAR          = .57407935E-3
MEAN_MOTION_DOT = .1391E-4
MEAN_MOTION_DDOT = 0

CCSDS_OMM_VERS = 2.0
CREATION_DATE  = 
ORIGINATOR     = 

OBJECT_NAME    = QIANFAN-100
OBJECT_ID      = 2025-233K
CENTER_NAME    = EARTH
REF_FRAME      = TEME
TIME_SYSTEM    = UTC
MEAN_ELEMENT_THEORY = SGP/SGP4

EPOCH          = 2025-11-12T19:00:27.859104
MEAN_MOTION    = 14.26232584
ECCENTRICITY   = .0016491
INCLINATION    = 88.9958
RA_OF_ASC_NODE = 65.4780
ARG_OF_PERICENTER = 130.4578
MEAN_ANOMALY   = 229.8056

EPHEMERIS_TYPE = 0
CLASSIFICATION_TYPE = U
NORAD_CAT_ID   = 66042
ELEMENT_SET_NO = 999
REV_AT_EPOCH   = 377
BSTAR          = .56018E-3
MEAN_MOTION_DOT = .1358E-4
MEAN_MOTION_DDOT = 0

